[{"OBJECT_NAME":"STARLINK-1320","OBJECT_ID":"2020-025AT","EPOCH":"2026-03-09T22:25:05.757888","MEAN_MOTION":15.68740025,"ECCENTRICITY":0.00073169,"INCLINATION":53.0503,"RA_OF_ASC_NODE":344.5237,"ARG_OF_PERICENTER":58.0358,"MEAN_ANOMALY":302.1368,"EPHEMERIS_TYPE":0,"CLASSIFICATION_TYPE":"U","NORAD_CAT_ID":45572,"ELEMENT_SET_NO":999,"REV_AT_EPOCH":32684,"BSTAR":0.00068865274,"MEAN_MOTION_DOT":0.00080462,"MEAN_MOTION_DDOT":0},{"OBJECT_NAME":"SCOUT X-1 DEB","OBJECT_ID":"1961-004F","EPOCH":"2026-03-01T00:08:32.328672","MEAN_MOTION":15.46428893,"ECCENTRICITY":0.00336749,"INCLINATION":39.0085,"RA_OF_ASC_NODE":274.0703,"ARG_OF_PERICENTER":55.969,"MEAN_ANOMALY":304.4293,"EPHEMERIS_TYPE":0,"CLASSIFICATION_TYPE":"U","NORAD_CAT_ID":3927,"ELEMENT_SET_NO":999,"REV_AT_EPOCH":11451,"BSTAR":0.009395543,"MEAN_MOTION_DOT":0.00520474,"MEAN_MOTION_DDOT":0}]
